NORAD_CAT_ID,OBJECT_NAME,OBJECT_TYPE,EPOCH,MEAN_MOTION,ECCENTRICITY,INCLINATION,RA_OF_ASC_NODE,ARG_OF_PERICENTER,MEAN_ANOMALY,BSTAR,MEAN_MOTION_DOT,MEAN_MOTION_DDOT,TLE_LINE0,TLE_LINE1,TLE_LINE2,SEMIMAJOR_AXIS,PERIOD,APOGEE,PERIGEE,DECAYED
55758.0,STARLINK-5072,PAYLOAD,2023-05-26 19:19:40,14.98331371,0.000327,70.0,290.7948,269.7343,90.3442,9.4142e-06,1.9e-07,0.0,0 STARLINK-5072,1 55758U 23028T   23146.80533184  .00000019  00000-0  94142-5 0  9998,2 55758  70.0000 290.7948 0003270 269.7343  90.3442 14.98331371 13572,6950.189,96.107,574.326,569.781,0.0
55758.0,STARLINK-5072,PAYLOAD,2023-05-27 19:21:41,14.98331079,0.0003374,69.9999,288.269,270.381,89.6962,2.2254e-05,1.72e-06,0.0,0 STARLINK-5072,1 55758U 23028T   23147.80673074  .00000172  00000-0  22254-4 0  9996,2 55758  69.9999 288.2690 0003374 270.3810  89.6962 14.98331079 13724,6950.19,96.107,574.4,569.71,0.0
55758.0,STARLINK-5072,PAYLOAD,2023-05-28 19:23:41,14.98337683,0.0003399,69.9999,285.7443,270.2679,89.809,6.8137e-05,7.2e-06,0.0,0 STARLINK-5072,1 55758U 23028T   23148.80812303  .00000720  00000-0  68137-4 0  9996,2 55758  69.9999 285.7443 0003399 270.2679  89.8090 14.98337683 13878,6950.169,96.107,574.396,569.672,0.0
55758.0,STARLINK-5072,PAYLOAD,2023-05-29 01:48:14,14.98332243,0.0003357,70.0,285.0709,270.6513,89.4261,-1.3803e-05,-2.58e-06,0.0,0 STARLINK-5072,1 55758U 23028T   23149.07516783 -.00000258  00000-0 -13803-4 0  9997,2 55758  70.0000 285.0709 0003357 270.6513  89.4261 14.98332243 13915,6950.186,96.107,574.384,569.718,0.0
55758.0,STARLINK-5072,PAYLOAD,2023-05-29 14:37:19,14.98328866,0.0003331,70.0002,283.7245,270.3042,89.7735,-4.1238e-05,-5.85e-06,0.0,0 STARLINK-5072,1 55758U 23028T   23149.60925044 -.00000585  00000-0 -41238-4 0  9996,2 55758  70.0002 283.7245 0003331 270.3042  89.7735 14.98328866 13996,6950.196,96.107,574.377,569.746,0.0
55758.0,STARLINK-5072,PAYLOAD,2023-05-29 19:25:43,14.98328937,0.0003277,70.0003,283.22,269.0861,90.9922,-2.2766e-05,-3.65e-06,0.0,0 STARLINK-5072,1 55758U 23028T   23149.80952985 -.00000365  00000-0 -22766-4 0  9993,2 55758  70.0003 283.2200 0003277 269.0861  90.9922 14.98328937 14022,6950.196,96.107,574.339,569.784,0.0
55758.0,STARLINK-5072,PAYLOAD,2023-05-30 01:50:15,14.98328972,0.0003274,70.0004,282.5467,269.4055,90.6729,-1.9562e-05,-3.26e-06,0.0,0 STARLINK-5072,1 55758U 23028T   23150.07656971 -.00000326  00000-0 -19562-4 0  9997,2 55758  70.0004 282.5467 0003274 269.4055  90.6729 14.98328972 14061,6950.196,96.107,574.337,569.786,0.0
55758.0,STARLINK-5072,PAYLOAD,2023-05-30 11:27:03,14.98333919,0.0003279,70.0003,281.5366,269.7634,90.3149,-3.0617e-05,-4.58e-06,0.0,0 STARLINK-5072,1 55758U 23028T   23150.47712635 -.00000458  00000-0 -30617-4 0  9991,2 55758  70.0003 281.5366 0003279 269.7634  90.3149 14.98333919 14125,6950.181,96.107,574.325,569.767,0.0
55758.0,STARLINK-5072,PAYLOAD,2023-05-30 16:15:27,14.98333119,0.0003293,70.0003,281.0316,269.7355,90.3427,-3.668e-05,-5.31e-06,0.0,0 STARLINK-5072,1 55758U 23028T   23150.67740656 -.00000531  00000-0 -36680-4 0  9995,2 55758  70.0003 281.0316 0003293 269.7355  90.3427 14.98333119 14155,6950.183,96.107,574.337,569.76,0.0
55758.0,STARLINK-5072,PAYLOAD,2023-05-31 01:52:16,14.98331929,0.0003275,70.0005,280.0215,271.1188,88.9596,-1.9253e-05,-3.23e-06,0.0,0 STARLINK-5072,1 55758U 23028T   23151.07796618 -.00000323  00000-0 -19253-4 0  9995,2 55758  70.0005 280.0215 0003275 271.1188  88.9596 14.98331929 14219,6950.187,96.107,574.328,569.776,0.0
55758.0,STARLINK-5072,PAYLOAD,2023-05-31 13:05:12,14.98326233,0.0003351,70.0003,278.8437,270.434,89.6435,1.1477e-06,-7.9e-07,0.0,0 STARLINK-5072,1 55758U 23028T   23151.54528935 -.00000079  00000-0  11477-5 0  9990,2 55758  70.0003 278.8437 0003351 270.4340  89.6435 14.98326233 14284,6950.205,96.107,574.399,569.741,0.0
55758.0,STARLINK-5072,PAYLOAD,2023-05-31 17:53:36,14.98329402,0.0003347,70.0001,278.3385,270.5624,89.5151,2.7314e-05,2.33e-06,0.0,0 STARLINK-5072,1 55758U 23028T   23151.74556682  .00000233  00000-0  27314-4 0  9999,2 55758  70.0001 278.3385 0003347 270.5624  89.5151 14.98329402 14319,6950.195,96.107,574.386,569.734,0.0
55758.0,STARLINK-5072,PAYLOAD,2023-06-01 01:54:17,14.98327283,0.0003401,69.9999,277.4971,270.2302,89.8467,-1.2295e-05,-2.4e-06,0.0,0 STARLINK-5072,1 55758U 23028T   23152.07936923 -.00000240  00000-0 -12295-4 0  9998,2 55758  69.9999 277.4971 0003401 270.2302  89.8467 14.98327283 14367,6950.201,96.107,574.43,569.703,0.0
55758.0,STARLINK-5072,PAYLOAD,2023-06-01 09:54:57,14.98328673,0.0003407,69.9998,276.6555,270.1912,89.8857,-1.0879e-06,-1.06e-06,0.0,0 STARLINK-5072,1 55758U 23028T   23152.41316825 -.00000106  00000-0 -10879-5 0  9997,2 55758  69.9998 276.6555 0003407 270.1912  89.8857 14.98328673 14410,6950.197,96.107,574.43,569.694,0.0
55758.0,STARLINK-5072,PAYLOAD,2023-06-02 01:56:18,14.98332699,0.0003537,69.9995,274.9703,271.8993,88.1761,-6.1464e-06,-1.66e-06,0.0,0 STARLINK-5072,1 55758U 23028T   23153.08076515 -.00000166  00000-0 -61464-5 0  9992,2 55758  69.9995 274.9703 0003537 271.8993  88.1761 14.98332699 14514,6950.185,96.107,574.508,569.591,0.0
55758.0,STARLINK-5072,PAYLOAD,2023-06-02 09:56:58,14.98317815,0.0003382,69.9995,274.1289,268.6058,91.4714,0.00017177,1.956e-05,0.0,0 STARLINK-5072,1 55758U 23028T   23153.41457025  .00001956  00000-0  17177-3 0  9994,2 55758  69.9995 274.1289 0003382 268.6058  91.4714 14.98317815 14562,6950.231,96.108,574.446,569.745,0.0
55758.0,STARLINK-5072,PAYLOAD,2023-06-02 13:09:15,14.98321296,0.0003372,69.9995,273.7923,268.9337,91.1436,0.00010949,1.213e-05,0.0,0 STARLINK-5072,1 55758U 23028T   23153.54809031  .00001213  00000-0  10949-3 0  9992,2 55758  69.9995 273.7923 0003372 268.9337  91.1436 14.98321296 14582,6950.22,96.108,574.428,569.741,0.0
55758.0,STARLINK-5072,PAYLOAD,2023-06-02 17:57:39,14.98328977,0.0003421,69.9996,273.2875,268.8077,91.269,-8.2433e-06,-1.91e-06,0.0,0 STARLINK-5072,1 55758U 23028T   23153.74836819 -.00000191  00000-0 -82433-5 0  9993,2 55758  69.9996 273.2875 0003421 268.8077  91.2690 14.98328977 14619,6950.196,96.107,574.439,569.683,0.0
55758.0,STARLINK-5072,PAYLOAD,2023-06-03 13:11:15,14.98331046,0.0003346,69.9999,271.2675,269.4545,90.6231,8.4573e-06,8e-08,0.0,0 STARLINK-5072,1 55758U 23028T   23154.54948687  .00000008  00000-0  84573-5 0  9991,2 55758  69.9999 271.2675 0003346 269.4545  90.6231 14.98331046 14739,6950.19,96.107,574.38,569.729,0.0
55758.0,STARLINK-5072,PAYLOAD,2023-06-03 17:59:39,14.98333772,0.0003368,70.0,270.7631,271.6969,88.3804,1.6927e-05,1.09e-06,0.0,0 STARLINK-5072,1 55758U 23028T   23154.74976486  .00000109  00000-0  16927-4 0  9990,2 55758  70.0000 270.7631 0003368 271.6969  88.3804 14.98333772 14761,6950.181,96.107,574.387,569.705,0.0
55758.0,STARLINK-5072,PAYLOAD,2023-06-04 13:13:16,14.98328762,0.0003381,70.0002,268.7437,273.0065,87.0707,3.3264e-05,3.04e-06,0.0,0 STARLINK-5072,1 55758U 23028T   23155.55088709  .00000304  00000-0  33264-4 0  9992,2 55758  70.0002 268.7437 0003381 273.0065  87.0707 14.98328762 14886,6950.197,96.107,574.412,569.712,0.0
55758.0,STARLINK-5072,PAYLOAD,2023-06-04 18:01:40,14.98330965,0.0003362,70.0002,268.2384,273.7396,86.3378,4.9903e-05,5.02e-06,0.0,0 STARLINK-5072,1 55758U 23028T   23155.75116526  .00000502  00000-0  49903-4 0  9990,2 55758  70.0002 268.2384 0003362 273.7396  86.3378 14.98330965 14913,6950.19,96.107,574.392,569.718,0.0
55758.0,STARLINK-5072,PAYLOAD,2023-06-05 13:15:17,14.98335061,0.0003375,70.0001,266.2189,268.8528,91.2245,1.9932e-05,1.45e-06,0.0,0 STARLINK-5072,1 55758U 23028T   23156.55228161  .00000145  00000-0  19932-4 0  9990,2 55758  70.0001 266.2189 0003375 268.8528  91.2245 14.98335061 15033,6950.177,96.107,574.388,569.697,0.0
55758.0,STARLINK-5072,PAYLOAD,2023-06-05 16:27:33,14.9833524,0.0003377,70.0002,265.8823,268.8448,91.2324,2.1208e-05,1.6e-06,0.0,0 STARLINK-5072,1 55758U 23028T   23156.68580102  .00000160  00000-0  21208-4 0  9996,2 55758  70.0002 265.8823 0003377 268.8448  91.2324 14.98335240 15056,6950.177,96.107,574.389,569.695,0.0
55758.0,STARLINK-5072,PAYLOAD,2023-06-06 08:28:54,14.98325649,0.0003319,70.0004,264.2,270.5254,89.5525,-7.1582e-05,-9.47e-06,0.0,0 STARLINK-5072,1 55758U 23028T   23157.35340927 -.00000947  00000-0 -71582-4 0  9995,2 55758  70.0004 264.2000 0003319 270.5254  89.5525 14.98325649 15155,6950.206,96.107,574.378,569.765,0.0
55758.0,STARLINK-5072,PAYLOAD,2023-06-06 11:41:10,14.98324474,0.0003339,70.0003,263.8631,270.4178,89.6598,-7.7621e-05,-1.019e-05,0.0,0 STARLINK-5072,1 55758U 23028T   23157.48693040 -.00001019  00000-0 -77621-4 0  9997,2 55758  70.0003 263.8631 0003339 270.4178  89.6598 14.98324474 15173,6950.21,96.107,574.396,569.754,0.0
55758.0,STARLINK-5072,PAYLOAD,2023-06-06 16:29:34,14.98326779,0.0003308,70.0005,263.3585,270.4106,89.6674,-4.0009e-05,-5.7e-06,0.0,0 STARLINK-5072,1 55758U 23028T   23157.68720833 -.00000570  00000-0 -40009-4 0  9991,2 55758  70.0005 263.3585 0003308 270.4106  89.6674 14.98326779 15204,6950.203,96.107,574.367,569.769,0.0
55758.0,STARLINK-5072,PAYLOAD,2023-06-07 08:30:55,14.98330843,0.000332,70.0006,261.6755,270.2803,89.7976,-3.9379e-05,-5.63e-06,0.0,0 STARLINK-5072,1 55758U 23028T   23158.35480604 -.00000563  00000-0 -39379-4 0  9995,2 55758  70.0006 261.6755 0003320 270.2803  89.7976 14.98330843 15305,6950.19,96.107,574.363,569.748,0.0
55758.0,STARLINK-5072,PAYLOAD,2023-06-07 16:31:35,14.9833083,0.0003327,70.0007,260.8341,270.7728,89.305,-1.7357e-05,-3e-06,0.0,0 STARLINK-5072,1 55758U 23028T   23158.68860535 -.00000300  00000-0 -17357-4 0  9997,2 55758  70.0007 260.8341 0003327 270.7728  89.3050 14.98330830 15356,6950.19,96.107,574.368,569.743,0.0
55758.0,STARLINK-5072,PAYLOAD,2023-06-08 11:45:12,14.98326745,0.0003491,70.0,258.8129,270.0877,89.9882,8.3545e-05,9.04e-06,0.0,0 STARLINK-5072,1 55758U 23028T   23159.48972465  .00000904  00000-0  83545-4 0  9992,2 55758  70.0000 258.8129 0003491 270.0877  89.9882 14.98326745 15472,6950.203,96.107,574.494,569.642,0.0
